XRISM                   
1 57800U 23137A   24246.39769534  .00011075  00000+0  80893-3 0  9994
2 57800  31.0017 240.7405 0009958 252.1816 107.7734 15.02416214 54220
